{"type":"FeatureCollection","features":[{"type":"Feature","properties":{"clave":"01","tipo":"federal","nombre":"Distrito federal 1","entidad":"12"},"geometry":{"type":"Polygon","coordinates":[[[-100.4294337054081,18.78515184271121],[-100.43405990590895,18.75083950527205],[-100.46630602574957,18.684901180109698],[-100.4767818270919,18.684592405412168],[-100.4830427273856,18.66392666170612],[-100.47153041806156,18.647340026367008],[-100.48520551390314,18.637968985432373],[-100.46841193473901,18.617783783450353],[-100.4516188417504,18.623497817435535],[-100.43714132781767,18.616970049657805],[-100.4287885881298,18.593763801929285],[-100.43923111483711,18.584897699272837],[-100.43857448849704,18.56992788728677],[-100.44587881902379,18.56309743118746],[-100.42712507615317,18.509800771179574],[-100.40693898434793,18.516853632177728],[-100.38888677105322,18.509686532564288],[-100.38793382710323,18.50282918900188],[-100.37172969130891,18.509056053543848],[-100.37183740346543,18.499248783379212],[-100.36358644885586,18.495081252291378],[-100.3670239468735,18.474519653569],[-100.39856744011352,18.444532466240965],[-100.38745372616783,18.419331916497118],[-100.32817916145997,18.397002625895706],[-100.30713424639336,18.36798100005972],[-100.29265721495308,18.37468181701631],[-100.29200539602473,18.381135807007063],[-100.26814574580368,18.37805021502437],[-100.25825188931233,18.392366306864684],[-100.25351879019503,18.417388502800424],[-100.22915061867069,18.41905439463638],[-100.22658388094875,18.435175725141566],[-100.20944357487761,18.449345776531274],[-100.20730752630018,18.441744255011454],[-100.19902683285905,18.45663468080109],[-100.18505927234803,18.455111080293975],[-100.1820013897276,18.467031288992942],[-100.17145556916368,18.47049271267601],[-100.17353107503146,18.481074722601807],[-100.16631602987916,18.47824090418114],[-100.16588519073058,18.48567613210157],[-100.15660467861127,18.485972299117527],[-100.15809133431502,18.491302450183138],[-100.14473726735294,18.487167395294225],[-100.14169586050592,18.50195131469211],[-100.11846433152485,18.505588091345032],[-100.12165356810118,18.51077124542012],[-100.11734220110044,18.50901069529991],[-100.09842709458201,18.530907989691652],[-100.0884650342824,18.52764129294282],[-100.08582535635061,18.54456025731006],[-100.07668037510334,18.55266897273292],[-100.08605790052039,18.55490170115515],[-100.08581550713077,18.56227838842972],[-100.06046076460348,18.58747294834296],[-100.06661946424322,18.601676884632653],[-100.00660602876715,18.59981150010812],[-99.99151342045144,18.5861853245076],[-99.994233375193,18.576610634762407],[-99.97488576469883,18.568720628800918],[-99.97542691351127,18.559884774942198],[-99.96114016249074,18.558049480991443],[-99.946290097421,18.588949721266154],[-99.90695892152766,18.60152635655585],[-99.88860820367589,18.61859698029691],[-99.84785074875862,18.605730711502225],[-99.84911023409165,18.61854997077089],[-99.83536340204286,18.643674000018514],[-99.81193204731225,18.62728828221718],[-99.78573878026434,18.633890678958494],[-99.78318398319409,18.663805296491482],[-99.75495229860456,18.700526587572305],[-99.75660442851789,18.713180542653763],[-99.7387330118445,18.727552963208673],[-99.7378925035992,18.739110571295868],[-99.70460379580749,18.735062044096757],[-99.67939716332751,18.71193721233826],[-99.67201717022725,18.714767999910432],[-99.70182972227727,18.759927792233825],[-99.70337002727223,18.77582156458262],[-99.69588243445986,18.784520741415466],[-99.66081221580508,18.77004211699065],[-99.64302032196294,18.73795369265074],[-99.63584558512892,18.746003730667784],[-99.62490557513922,18.73928842832824],[-99.58028704405838,18.73571215859841],[-99.58183425615033,18.720795324118228],[-99.55548847335685,18.69952627202103],[-99.53305945571644,18.6957092685357],[-99.52469477516846,18.70737698246246],[-99.49441843224781,18.721331022854955],[-99.4598451265734,18.636027358810157],[-99.45356873781813,18.606232260045164],[-99.44148134674808,18.6092044425493],[-99.42304193847517,18.591023647138613],[-99.43649014208759,18.582155158550655],[-99.43809532558727,18.568205147534613],[-99.40689733052879,18.55460778368429],[-99.38967049627004,18.523203622916924],[-99.3793236936628,18.51810876030075],[-99.38317366243844,18.505311575433073],[-99.37488482828597,18.481551558845442],[-99.36153848248881,18.47552137289288],[-99.35566719921243,18.482199835321587],[-99.32644395722461,18.471388705126778],[-99.3270588122779,18.45250322930719],[-99.30771760706023,18.44668237669726],[-99.30512134824427,18.452863010513266],[-99.2456328634126,18.44355568155829],[-99.24511779741287,18.448708586878226],[-99.2103468020536,18.448765018546922],[-99.24121285243932,18.434305778767477],[-99.25592041982448,18.435202639289482],[-99.269818114905,18.422455056782578],[-99.29281339770621,18.42343840864084],[-99.34816166531748,18.399357422174383],[-99.3711033679051,18.402774902144973],[-99.41818950975022,18.370883271064304],[-99.4430991394679,18.368604520216653],[-99.48082343132532,18.39986097097297],[-99.52780399535987,18.419074246057725],[-99.54253364585558,18.405781126025442],[-99.55536452069447,18.413156717327755],[-99.5797991175959,18.40123690051145],[-99.57060537573237,18.389195303593404],[-99.6147120268189,18.34905494169156],[-99.63469413859995,18.345682372097453],[-99.63753570605371,18.357591769378402],[-99.65518652113877,18.341104261216465],[-99.6338050392518,18.321205950043815],[-99.62969380525021,18.30912995629527],[-99.61865943970025,18.303662662340336],[-99.64521756185074,18.303730442107305],[-99.65128420398882,18.31484047438239],[-99.67049071625391,18.312503254010274],[-99.68566237726974,18.318817658336407],[-99.7193654814516,18.30987203133493],[-99.72741044512338,18.29848756831946],[-99.71604166994236,18.285012444477548],[-99.72225768380025,18.263402881079504],[-99.71757704262346,18.244538971013434],[-99.73623092275366,18.202841966885067],[-99.75075265613594,18.19739998786295],[-99.74463454614714,18.185035742610136],[-99.75861970910063,18.158034010427222],[-99.77532588611183,18.15155244243799],[-99.77559372304773,18.127343598722533],[-99.79612705819201,18.0897764084319],[-99.79247223704833,18.061684164032872],[-99.7977466862261,18.03593562446052],[-99.81243508903582,18.039841526083993],[-99.83028103056041,18.034470902311334],[-99.84285636557571,18.00436254053195],[-99.84347167557245,17.989174199937548],[-99.8284910530465,17.97794640158207],[-99.82620199689828,17.990489374653805],[-99.81584426931231,17.995391126364993],[-99.81841450332735,17.97568862688653],[-99.80031109657185,17.964290188456275],[-99.80944348231306,17.958119312868398],[-99.8089813953933,17.948044966003202],[-99.8202133935038,17.93254226181089],[-99.81246118755482,17.928496181949832],[-99.82603491667854,17.900676564485448],[-99.86066157638776,17.911983823204157],[-99.86214739194342,17.93277203955562],[-99.88615713933315,17.957563712076713],[-99.88573310160083,17.97108444695909],[-99.90098024717155,17.967824563663406],[-99.8899490539637,17.960489352095937],[-99.90835938689563,17.949748809280337],[-99.91466460861669,17.938806497115348],[-99.93467516506927,17.942841759645955],[-99.9317633463669,17.951273583372082],[-99.94687019338552,17.95335560442685],[-99.95296202207771,17.965323650897922],[-99.96348146119543,17.957082062275248],[-99.96938541102057,17.96436959252922],[-99.97704643031484,17.963026307398437],[-99.98139323971776,17.953505654502063],[-99.99970387165673,17.948888797458412],[-99.99172103898688,17.956698228044132],[-99.99520900441816,17.964998022632386],[-100.01844112414301,17.950771030507966],[-100.02401650601932,17.962119338743424],[-100.03298412813982,17.955957853447007],[-100.03708229569882,17.972578857472914],[-100.05024673264751,17.963690039171173],[-100.0621996729019,17.969309817359388],[-100.06379090486426,17.978079393748686],[-100.04766574385305,17.981690417203357],[-100.03995835702423,18.000892081617057],[-100.02142339643902,18.008248900044553],[-100.0243366707245,18.03159075634572],[-100.01663772859358,18.038860436169088],[-100.02417691461974,18.050275766545518],[-100.04781320756857,18.048759892057387],[-100.05210114132836,18.039445416701476],[-100.06309941067295,18.035751563512694],[-100.05339067801148,18.000990543135007],[-100.06566720156479,17.986018066363766],[-100.09191424865828,17.991233614056657],[-100.09595273652928,17.984144619042407],[-100.1157982061448,17.97826949359582],[-100.11335103752342,17.965528291935367],[-100.14884470346446,17.965620463406832],[-100.1402192127869,17.941228452676135],[-100.17739263362145,17.90986422368999],[-100.17438918541107,17.884148171537348],[-100.15962073970033,17.86807814413453],[-100.14446955194072,17.86768459568205],[-100.1284100322924,17.849811813295954],[-100.13519965216986,17.83854614201858],[-100.1470784530183,17.8396923729246],[-100.15677923755524,17.830574125475003],[-100.1582386026589,17.82095883062175],[-100.14952788569317,17.812570830805267],[-100.15174475171139,17.792606451876114],[-100.13975685142691,17.76607226168747],[-100.15670307470845,17.69425585175705],[-100.13920767890518,17.67908555703138],[-100.14215588095516,17.669424320961127],[-100.1556664083091,17.667704957174934],[-100.14771610816973,17.64787344532284],[-100.17544953604559,17.603609230616566],[-100.18483194932803,17.597045944889107],[-100.20053033203206,17.601156717531847],[-100.21474124577678,17.58720961733189],[-100.22654807876907,17.58920391298726],[-100.2124342993289,17.573639638614736],[-100.21502763918625,17.563736323074824],[-100.22932053994535,17.56406574639436],[-100.20803373294704,17.545708783216668],[-100.2134028043104,17.523968321921],[-100.22643404147712,17.51871686894041],[-100.22701894868844,17.509115084947087],[-100.2855547894262,17.512642070457126],[-100.36332809498364,17.549255634777193],[-100.37413947729294,17.544631881167874],[-100.38848885148049,17.552593668350603],[-100.39494560469845,17.549099474461876],[-100.42187466026897,17.564793333267797],[-100.44331023997326,17.55887588303325],[-100.46278921569781,17.57109167352713],[-100.45902334290524,17.599030240571917],[-100.4812204670399,17.630650967893104],[-100.48737013555244,17.623139925081613],[-100.48148925594143,17.614413231366175],[-100.49112928475898,17.583814971740164],[-100.50776259707685,17.589621708423195],[-100.54936490759019,17.587653617476803],[-100.57429294973278,17.61126408189898],[-100.57475417489171,17.625276593794663],[-100.598452714603,17.63580073386657],[-100.59807941842793,17.64685922343222],[-100.6095786954399,17.655373644183168],[-100.63181583271964,17.654705082750734],[-100.63558214165965,17.64976309050174],[-100.67965759816738,17.656377973206975],[-100.7457825154689,17.687816835110446],[-100.77079429176318,17.666802848706233],[-100.8009405714018,17.676923485966896],[-100.82347224493479,17.671151272424375],[-100.8398005150017,17.677505832343037],[-100.85131062317545,17.67366164392552],[-100.87198031100972,17.687870072224527],[-100.85246410112381,17.698620599657406],[-100.86145201941483,17.700021489484087],[-100.85679642387373,17.706627815615704],[-100.87026336254475,17.70707790049452],[-100.87743249922713,17.71683222544693],[-100.8743129274831,17.72156701614856],[-100.89282550013382,17.720068732098383],[-100.90034196278063,17.729859981515816],[-100.90366557674054,17.72248148563813],[-100.91815138631434,17.72110236444024],[-100.94538298694926,17.73449495590995],[-100.94373280079337,17.742187609951635],[-100.95167753441626,17.74838179430601],[-100.94754240859616,17.760803997604476],[-100.99706192590385,17.797489141484128],[-101.01323728227148,17.77528577111491],[-101.00998574151897,17.750062552190983],[-101.05991198515652,17.7590772562619],[-101.10993235259158,17.72930610734669],[-101.102680662892,17.70813545274573],[-101.11132748848082,17.687220713790687],[-101.12158090506499,17.704524977374497],[-101.13415752660762,17.7919560607014],[-101.15215867858484,17.84788027197313],[-101.14452116607231,17.9015272487834],[-101.17860051391834,17.920832040787705],[-101.18372002472371,17.94766992397902],[-101.20501314748594,17.959877602032844],[-101.18987556970679,17.976539074396214],[-101.18943860373005,17.99318012207458],[-101.24016599984837,18.017980255542547],[-101.24083050622593,18.039343201522453],[-101.24796388597909,18.045627122479534],[-101.27605410270772,18.045352211545076],[-101.28473253647542,18.033273265315263],[-101.30805808062709,18.045698600506622],[-101.31492271137911,18.060402254343032],[-101.30802662957531,18.082953479909467],[-101.3145334130342,18.12862952804789],[-101.31141998025322,18.15824753453183],[-101.30252088856219,18.17214123289681],[-101.31811052949848,18.176345624385284],[-101.33654197837505,18.158151121203836],[-101.34757165940576,18.162148292698642],[-101.4092669363793,18.141864941136586],[-101.42980876627075,18.15998286494422],[-101.423918950203,18.189743907334197],[-101.44091040197607,18.218924715423256],[-101.4584172176882,18.225383440309447],[-101.46015518784824,18.248766226674807],[-101.48165736532209,18.258105204687975],[-101.4640115879348,18.26542419491527],[-101.4759869732638,18.294074476513707],[-101.4554420903886,18.319378025613027],[-101.4782712240959,18.344922900510046],[-101.53166248117077,18.45691101709178],[-101.51911252637102,18.462748768810062],[-101.51860199562047,18.469562278208574],[-101.49686742215235,18.4884738193782],[-101.46727996703008,18.485827381754294],[-101.45799482669324,18.496646254186967],[-101.44240018864828,18.48779754024992],[-101.4327062559059,18.501715003674423],[-101.41683223904634,18.49662191219772],[-101.4073413261169,18.51235043547507],[-101.39489696963118,18.505061444172835],[-101.37850032290734,18.5096665385076],[-101.36708309916445,18.498235890315083],[-101.3637294063208,18.519774871505266],[-101.29985950691061,18.533006211954213],[-101.28444142776941,18.544724877907257],[-101.27077380377895,18.534829035894088],[-101.25794390683235,18.539822001047053],[-101.24098751524903,18.5334301930432],[-101.21167015577882,18.536192692306344],[-101.19267481189429,18.518081513414156],[-101.16601875358687,18.520919809724163],[-101.14570822363248,18.51055764623258],[-101.13195282721156,18.518099306826997],[-101.12136106576995,18.50934816549829],[-101.08822195008045,18.505736259774164],[-101.03912104380656,18.52564522932634],[-101.01956822040087,18.52140647802716],[-101.01228754057153,18.527661673246488],[-101.00494154988557,18.49099486974848],[-100.98759411565449,18.49086166306203],[-100.96480919147349,18.47201822325885],[-100.96561765507586,18.44607055781365],[-100.95486451336389,18.444115516990877],[-100.94329040285076,18.455096608647466],[-100.92357831912908,18.443086437355877],[-100.91434190958934,18.471840386862574],[-100.893726234833,18.46226165808726],[-100.87537191884971,18.492773223011962],[-100.85395309626126,18.476154943379445],[-100.8257295505014,18.47321869538013],[-100.79847362490558,18.480784527100713],[-100.77819440755255,18.439737102865735],[-100.75961759256118,18.43463493298937],[-100.75114520737382,18.425570291778488],[-100.7385856934529,18.428001864231987],[-100.72373808506231,18.402733629960036],[-100.71356992480418,18.401768161311562],[-100.70983754424368,18.41729258535996],[-100.69478425739958,18.416895243560564],[-100.68460575581673,18.38745545768838],[-100.67535292806394,18.3839388725996],[-100.67623279334862,18.371772050990792],[-100.64467669691473,18.3471280638239],[-100.64005663340501,18.363778903632674],[-100.62612102982918,18.375297364453814],[-100.60972953647122,18.378054204475255],[-100.58776031541908,18.406981278845503],[-100.5880049799525,18.41439832895053],[-100.64839612909927,18.42992152765105],[-100.64472647913128,18.446176502212882],[-100.64932493452491,18.46321563975946],[-100.69579781971363,18.489700511563363],[-100.70690923873927,18.483275439999307],[-100.7357538674213,18.484688215523388],[-100.74263625403138,18.49968244097341],[-100.7435167760488,18.520500466087395],[-100.76408969429494,18.56261279043381],[-100.75725837126568,18.610481929935442],[-100.7303010472327,18.637033837065605],[-100.7597333239635,18.646876439417024],[-100.76369072275243,18.66836014248806],[-100.75522025802017,18.681619494441794],[-100.76745329834291,18.704055154336807],[-100.76147268643292,18.715993299290247],[-100.78443015167223,18.766404538718845],[-100.79360717034899,18.842670572089325],[-100.78743776657781,18.857729140713662],[-100.74912344858035,18.869066729619412],[-100.74682471162052,18.858353138237774],[-100.73714507728104,18.86140782392701],[-100.73640937070965,18.85103815032802],[-100.72169998710768,18.8484306443465],[-100.70874952627027,18.83462683010647],[-100.71117914623609,18.825538839434817],[-100.69881016609096,18.82231075085257],[-100.70693583420335,18.81330833705235],[-100.70609573776883,18.798104603617485],[-100.69677614688815,18.795185337024492],[-100.6910059835174,18.806737107291188],[-100.68350014307482,18.803500946979298],[-100.67960604589857,18.818370070402572],[-100.66619172639717,18.820864596363187],[-100.67156400468006,18.82618132077118],[-100.66545906430946,18.83450838506717],[-100.6498962144979,18.840459448081432],[-100.65281777585211,18.846446101836687],[-100.64263575253952,18.8503659144797],[-100.63959131597679,18.866962921396905],[-100.62113636973112,18.867969576463675],[-100.61143087933948,18.888198730111277],[-100.58721015903643,18.85990836577674],[-100.5675670172379,18.848976620709603],[-100.55363191928852,18.85242478378649],[-100.53766200371541,18.845006101398795],[-100.4895876679795,18.81323205259638],[-100.47810148726751,18.797116367574635],[-100.45882572768922,18.79724568269172],[-100.45715382674642,18.779065687538885],[-100.4512604365979,18.783223233377644],[-100.44239547625398,18.777095409279386],[-100.4294337054081,18.78515184271121]]]}},{"type":"Feature","properties":{"clave":"02","tipo":"federal","nombre":"Distrito federal 2","entidad":"12"},"geometry":{"type":"MultiPolygon","coordinates":[[[[-99.91835897245498,16.82279771042564],[-99.90138357821502,16.82251480386081],[-99.90184747872416,16.820612333047826],[-99.91835897245498,16.82279771042564]]],[[[-99.81921015225859,16.917048353725903],[-99.77777857780907,16.946774334894595],[-99.76756662547963,16.945671099005114],[-99.76214842911621,16.95260820652291],[-99.74093996946627,16.94485251373474],[-99.73941741226533,16.953538026005635],[-99.73058383910227,16.952105816363996],[-99.7309050356786,16.95864481651097],[-99.71272038137614,16.97175056519549],[-99.69077621850334,16.976401647765186],[-99.66873976566174,16.97492577692176],[-99.66475134946788,16.967298991229786],[-99.65544110469773,16.970248373816727],[-99.6340365289662,16.954701218548337],[-99.63808253112671,16.947679982713847],[-99.63181111506606,16.937396435242903],[-99.58437731831683,16.91761618981923],[-99.5707123200964,16.919304482166034],[-99.53364918327186,16.94258715186754],[-99.57895583083919,16.950288002674856],[-99.56760055858624,16.974330554760627],[-99.53994445309779,16.971744049618447],[-99.53934557763029,16.97720414753896],[-99.49758574053705,16.995000256968595],[-99.47463670526915,16.99201000405065],[-99.47554887619911,16.969832967475355],[-99.48284520232649,16.95670345963298],[-99.50112245031946,16.95148061712144],[-99.49284260742836,16.930673426735474],[-99.51011141278752,16.919652267445162],[-99.51951554489376,16.896598167252762],[-99.52147533439543,16.84545741108253],[-99.56929375902912,16.798629525135954],[-99.57730907489675,16.801721315058405],[-99.59718998481408,16.792854651912993],[-99.605328143824,16.766978397108783],[-99.62352588577282,16.748006187281106],[-99.62085450949235,16.728630168856437],[-99.60211871008372,16.71275638897669],[-99.60690765533421,16.68465419412215],[-99.64608894849717,16.69195481864644],[-99.70529364686882,16.714173674925387],[-99.76342336551771,16.746123778262916],[-99.81329246260471,16.785236044804794],[-99.82827986328293,16.790592132893245],[-99.83367897694072,16.783407299303256],[-99.84507173472724,16.784422898246824],[-99.84637536483179,16.79276687290136],[-99.8587981096799,16.795777212872974],[-99.84901939831882,16.799173322858024],[-99.84021730764431,16.793826355883066],[-99.83660011324963,16.80284368772994],[-99.84105052196762,16.808740407065603],[-99.8552067641803,16.80569615226561],[-99.87626890828578,16.813699102964897],[-99.86399131662378,16.833926636383698],[-99.85319103524378,16.834958802350457],[-99.85097511979788,16.840610695206397],[-99.85767070138661,16.852241385468968],[-99.87363769653714,16.85788382350277],[-99.86926951252086,16.872244534680796],[-99.85241740722175,16.881201951673468],[-99.85246446929963,16.891151249131294],[-99.84392597991068,16.890411053122218],[-99.84355978601671,16.899052592871456],[-99.83003921063327,16.909099247874238],[-99.82551554557806,16.906421657350247],[-99.81921015225859,16.917048353725903]]]]}},{"type":"Feature","properties":{"clave":"03","tipo":"federal","nombre":"Distrito federal 3","entidad":"12"},"geometry":{"type":"Polygon","coordinates":[[[-101.7847379046865,18.60223347174954],[-101.74002354809811,18.60395123039065],[-101.7132649059423,18.59005688460425],[-101.65386699729429,18.595375570697907],[-101.63972165582027,18.603859938941618],[-101.62524678362597,18.60046639011662],[-101.62031691199371,18.586635118290925],[-101.60529175071336,18.575755210487678],[-101.58797649082418,18.524834211978842],[-101.56479784315334,18.50926010158986],[-101.5511761083288,18.510254227996587],[-101.54005234022294,18.496800000136705],[-101.51814297790598,18.496075185004482],[-101.50254620844059,18.48605195893359],[-101.51911252637102,18.462748768810062],[-101.53166248117077,18.45691101709178],[-101.4782712240959,18.344922900510046],[-101.45526528594148,18.31809969576834],[-101.4759869732638,18.294074476513654],[-101.4640115879348,18.265424194915333],[-101.4816573653221,18.258105204687958],[-101.46015518784824,18.24876622667482],[-101.4584172176882,18.225383440309447],[-101.44091040197607,18.218924715423203],[-101.43023019467039,18.201431490546565],[-101.42374885212824,18.189369776850743],[-101.42980876627075,18.15998286494429],[-101.41612451681725,18.14416606691833],[-101.40032703520755,18.143190573016287],[-101.34757165940576,18.162148292698692],[-101.33654197837504,18.158151121203854],[-101.31811052949848,18.176345624385284],[-101.30252088856219,18.17214123289681],[-101.31141998025322,18.15824753453183],[-101.3145334130342,18.12862952804789],[-101.30802662957531,18.082953479909467],[-101.31382324760023,18.055763160279795],[-101.30805808062709,18.045698600506622],[-101.28536679840626,18.03328097717586],[-101.27605410270772,18.045352211545076],[-101.24796388597909,18.045627122479534],[-101.24083050622593,18.039343201522453],[-101.24016599984837,18.017980255542547],[-101.18943860373005,17.99318012207458],[-101.18987556970679,17.976539074396214],[-101.20501314748594,17.959877602032844],[-101.18372002472371,17.94766992397902],[-101.17860051391834,17.920832040787705],[-101.14452116607231,17.9015272487834],[-101.15215867858484,17.84788027197313],[-101.13415752660762,17.7919560607014],[-101.12158090506499,17.704524977374497],[-101.11132748848082,17.687220713790687],[-101.102680662892,17.70813545274573],[-101.10993235259158,17.72930610734669],[-101.05991198515652,17.7590772562619],[-101.00998574151897,17.750062552190983],[-101.01323728227148,17.77528577111491],[-100.99706192590385,17.797489141484128],[-100.94754240859616,17.760803997604476],[-100.95167753441626,17.74838179430601],[-100.94373280079337,17.742187609951635],[-100.94538298694926,17.73449495590995],[-100.91815138631434,17.72110236444024],[-100.90366557674054,17.72248148563813],[-100.90034196278063,17.729859981515816],[-100.89282550013382,17.720068732098383],[-100.8743129274831,17.72156701614856],[-100.87743249922713,17.71683222544693],[-100.87026336254475,17.70707790049452],[-100.85679642387373,17.706627815615704],[-100.86145201941483,17.700021489484087],[-100.85246410112381,17.698620599657406],[-100.87198031100972,17.687870072224527],[-100.85131062317545,17.67366164392552],[-100.8398005150017,17.677505832343037],[-100.82347224493479,17.671151272424375],[-100.8009405714018,17.676923485966896],[-100.77079429176318,17.666802848706233],[-100.7457825154689,17.687816835110446],[-100.67965759816738,17.656377973206975],[-100.63558214165965,17.64976309050174],[-100.63181583271964,17.654705082750734],[-100.6095786954399,17.655373644183168],[-100.59807941842793,17.64685922343222],[-100.598452714603,17.63580073386657],[-100.57475417489171,17.625276593794663],[-100.57429294973278,17.61126408189898],[-100.54936490759019,17.587653617476803],[-100.50776259707685,17.589621708423195],[-100.49112928475898,17.583814971740164],[-100.48148925594143,17.614413231366175],[-100.48737013555244,17.623139925081613],[-100.4812204670399,17.630650967893104],[-100.45902334290524,17.599030240571917],[-100.46278921569781,17.57109167352713],[-100.44331023997326,17.55887588303325],[-100.42255877339085,17.564940414392392],[-100.39494560469845,17.549099474461876],[-100.38848885148049,17.552593668350603],[-100.37413947729294,17.544631881167874],[-100.36332809498364,17.549255634777193],[-100.2855547894262,17.512642070457126],[-100.25443136414958,17.507637615338204],[-100.19511671020702,17.511203825013805],[-100.17639853943743,17.468122816648243],[-100.13683129788127,17.468087817671265],[-100.12014501581243,17.452070701326896],[-100.06556577239488,17.461949006458685],[-100.02866655955731,17.47559570177239],[-100.01859663351648,17.46178212145285],[-100.08724685000082,17.42464078506079],[-100.07375387670349,17.400663906949255],[-100.04143872952491,17.389980852024756],[-100.01343633339758,17.3398681369222],[-99.99919206874232,17.342466982056003],[-99.9935723531382,17.3502628712963],[-99.97541579066406,17.34955639749818],[-99.97241201079908,17.33656235892629],[-99.96310719621016,17.338403115837757],[-99.96470680194699,17.330864647641246],[-99.9530998754391,17.32890056761195],[-99.95021322727106,17.316154263425666],[-99.9441244692085,17.316497295043934],[-99.94779200010151,17.30837529490218],[-99.94043161331436,17.301019764908222],[-99.94510849151048,17.270207183779384],[-99.89939582780471,17.272856652292784],[-99.89490639302069,17.260691617340434],[-99.8777872863035,17.25293553763098],[-99.86985183723336,17.23680048203006],[-99.85481179608969,17.244275697301436],[-99.85239378632524,17.23326579500194],[-99.84343750102035,17.235762798368423],[-99.83275186439336,17.224184375061228],[-99.83561056161142,17.198095906673206],[-99.82378310562942,17.195461726906046],[-99.8181503957165,17.17741664410011],[-99.80758725055516,17.174531414598682],[-99.8425307035666,17.171454914185045],[-99.84051343703258,17.15154230630128],[-99.87656768037586,17.09988462894714],[-99.86110439084817,17.092312218822823],[-99.86027931882491,17.071195613101253],[-99.847379438542,17.0556725073487],[-99.84586351912363,17.03554179454679],[-99.86557454788243,17.039957410396926],[-99.86158016326999,17.017571433755734],[-99.8692728542103,17.011474439041876],[-99.87151104845458,16.99137513527238],[-99.88608959230595,16.994698714194286],[-99.93628369225968,16.960233848937918],[-99.91686832662566,16.93863413528],[-99.94102664269207,16.93306326580775],[-99.9377088862372,16.92984008000223],[-99.94357865753989,16.92298223016771],[-99.96937972257028,16.925658770755955],[-99.96779846619935,16.90144137284124],[-99.97307493872366,16.900627080940748],[-100.12903695927565,16.948587816800917],[-100.4187314108814,17.05861384124208],[-100.58997703376679,17.11563274751149],[-100.67270881648095,17.136509976202433],[-100.82658127995968,17.196454457286546],[-100.91827815227056,17.22298925578093],[-100.98887330572958,17.2513308146899],[-101.01280187432451,17.254323308042466],[-101.03682275891444,17.27364351020722],[-101.0611699690393,17.26575774021977],[-101.06477485508165,17.27461242584137],[-101.05633733763663,17.27451222950854],[-101.05023016360794,17.29182183661623],[-101.05732632799162,17.309117793834478],[-101.07824820568244,17.33095560731826],[-101.12770179051161,17.36514513170942],[-101.17412874117292,17.38815149043712],[-101.18000533733205,17.408421912652972],[-101.20531522469635,17.42719403301867],[-101.28855744081021,17.466370074399432],[-101.4416980445888,17.525436331393657],[-101.45721226269498,17.525732042802304],[-101.46238888392864,17.53627724372174],[-101.44324774761381,17.538844638756878],[-101.44259793413255,17.560801809298518],[-101.48971837471544,17.609723222540403],[-101.51723521708449,17.624523100606414],[-101.55782365334152,17.61440029292296],[-101.55770295031743,17.62203959716726],[-101.54607067237181,17.62478316490043],[-101.55199618592594,17.63845410958284],[-101.55895165717884,17.63689046731651],[-101.56257325045264,17.627164748568408],[-101.57369557392957,17.639367511217507],[-101.59769978942914,17.636353621531825],[-101.60739153829799,17.660106681394165],[-101.63344295294027,17.66778908694164],[-101.6504603007464,17.66529300084126],[-101.644824974928,17.671644583494874],[-101.65029451000025,17.702100482774046],[-101.66906953955719,17.735252013470255],[-101.69520906578795,17.761085836616164],[-101.74642170371034,17.79209320312862],[-101.74812348171784,17.80897497856274],[-101.77111650690482,17.8304516117318],[-101.76399417241997,17.83944421328308],[-101.76936170365731,17.837780919908585],[-101.7861937625359,17.867193862821807],[-101.8176753156789,17.89297461724896],[-101.8652814101139,17.911089804228453],[-101.86247628045165,17.917447873635005],[-101.86769480959133,17.91393499610371],[-101.94124677280237,17.95998998268128],[-102.04058075615788,17.989104911598737],[-102.0981204344694,17.982437674960984],[-102.12680977096142,17.94669197752831],[-102.14104991490542,17.950573925500798],[-102.13792248663731,17.970641763621124],[-102.17075120172808,17.98842857238928],[-102.18178349960257,18.00220293877473],[-102.18412291502354,18.021352095365977],[-102.18440349163876,18.062259657019787],[-102.17392674415512,18.11133524384115],[-102.17743103932321,18.12178572465699],[-102.16203518927496,18.14690265218612],[-102.16123908511196,18.16493794060762],[-102.15059318151951,18.170023017652966],[-102.13921795961964,18.188761971313657],[-102.05714859435007,18.195478679047227],[-102.04010923586888,18.20801787183711],[-102.0179792038189,18.202963359975016],[-101.97720981491327,18.207692412379256],[-101.97283137314211,18.232631080054567],[-101.95117699788321,18.227559998525802],[-101.92741658342638,18.231725277753384],[-101.90797502123665,18.243412331136504],[-101.90684723326068,18.261300373796782],[-101.89468966181198,18.27880379283521],[-101.8826068688818,18.26208249344511],[-101.86265778698395,18.26052110344495],[-101.88255404067387,18.276675533432524],[-101.86294530736907,18.28743716173132],[-101.8695048814861,18.30700567423714],[-101.8565320591098,18.314536289237722],[-101.86972719544939,18.330543875038753],[-101.8622356152726,18.35452779766696],[-101.8861303926966,18.380101718780164],[-101.88878336993805,18.398043634041493],[-101.86564399048834,18.44935657876383],[-101.88662984293201,18.480388047959398],[-101.8841867518386,18.522758319422348],[-101.84683971290475,18.569247350643593],[-101.7847379046865,18.60223347174954]]]}},{"type":"Feature","properties":{"clave":"04","tipo":"federal","nombre":"Distrito federal 4","entidad":"12"},"geometry":{"type":"Polygon","coordinates":[[[-99.74869162612254,17.244485680859928],[-99.74294942299287,17.232069516039015],[-99.73491021720457,17.235223392754598],[-99.73330330181807,17.223631389576482],[-99.72583777637216,17.232663919173604],[-99.72101554006882,17.224469608444615],[-99.71240136654583,17.231183885766445],[-99.70643338878864,17.21404653171237],[-99.70069140680117,17.21545835517664],[-99.69736349957773,17.20726237302482],[-99.69035603355105,17.21662457466497],[-99.68059456583511,17.218121173175334],[-99.68128068695631,17.226153413186818],[-99.67117400487005,17.227898211748762],[-99.66359825201009,17.219538290216548],[-99.67439404186428,17.216634145716093],[-99.66498071795984,17.209683063491838],[-99.66980490022479,17.206616525847963],[-99.66544595118945,17.196515845669417],[-99.65557125395684,17.196437847025763],[-99.6544276762042,17.187329113964612],[-99.64593019649273,17.189154661353395],[-99.64248936326702,17.182696745215377],[-99.63754865208847,17.188826708245134],[-99.64110397148899,17.1957815316573],[-99.63593695644485,17.1957834857636],[-99.62626948871683,17.1705166007684],[-99.62987285678257,17.160431874386177],[-99.60754209950444,17.16929429551701],[-99.60389057684165,17.16307461663884],[-99.59400804204547,17.162957372084993],[-99.58918799347062,17.139488992552675],[-99.57402474629957,17.13358860992995],[-99.56261467783494,17.141492130052345],[-99.56025032082587,17.130476117647774],[-99.55381898691081,17.129790209632535],[-99.5647971955743,17.115512943826623],[-99.55072364483425,17.10254995746384],[-99.55354354376784,17.08849090839501],[-99.54311182150585,17.058243438473013],[-99.5581580315819,17.058217052048015],[-99.56888767823892,17.047249185702118],[-99.55682297831196,17.02270694295108],[-99.57935691308037,17.01658239841178],[-99.60908102363834,17.020577432873203],[-99.6127794843798,16.987237115466296],[-99.62543935377148,16.979749110640142],[-99.63978060151925,16.98211460550946],[-99.63055746065454,16.9633795349112],[-99.6340365289662,16.954701218548337],[-99.65544110469773,16.970248373816727],[-99.66475134946788,16.967298991229786],[-99.66873976566174,16.97492577692176],[-99.69226894540517,16.97632346977027],[-99.71272038137614,16.97175056519549],[-99.7309050356786,16.95864481651097],[-99.73058383910227,16.952105816363996],[-99.73941741226533,16.953538026005635],[-99.74093996946627,16.94485251373474],[-99.76214842911621,16.95260820652291],[-99.76756662547963,16.945671099005114],[-99.77777857780907,16.946774334894595],[-99.81624194354005,16.919885770722622],[-99.82551554557806,16.906421657350247],[-99.83003921063327,16.909099247874238],[-99.84355978601671,16.899052592871456],[-99.84392597991068,16.890411053122218],[-99.85246446929963,16.891151249131294],[-99.85241740722175,16.881201951673468],[-99.86926951252086,16.872244534680796],[-99.87363769653714,16.85788382350277],[-99.88571805109629,16.859133539197625],[-99.90738088022152,16.84825661493692],[-99.90795209887389,16.83798057667038],[-99.89201272069465,16.836135726221602],[-99.91545539345285,16.827683583512684],[-99.91986383822442,16.835581041005558],[-99.91484873746587,16.84616043930817],[-99.92509118335981,16.84956937172307],[-99.92352190645089,16.860419067217755],[-99.93286885253549,16.8602396984423],[-99.94570654499694,16.878318878716495],[-99.95800220878036,16.884057377021175],[-99.95907278188864,16.89284230382548],[-99.97307493872366,16.900627080940748],[-99.96779846619935,16.90144137284124],[-99.96937972257028,16.925658770755955],[-99.94357865753989,16.92298223016773],[-99.9377088862372,16.92984008000218],[-99.94102664269207,16.93306326580775],[-99.91686832662567,16.93863413528],[-99.93628369225968,16.960233848937918],[-99.88608959230595,16.994698714194286],[-99.87151104845458,16.99137513527238],[-99.8692728542103,17.011474439041876],[-99.86158016326999,17.017571433755734],[-99.86557454788243,17.039957410396926],[-99.84586351912363,17.03554179454679],[-99.847379438542,17.0556725073487],[-99.86027931882491,17.071195613101253],[-99.86110439084817,17.092312218822823],[-99.87656768037586,17.09988462894714],[-99.84051343703258,17.15154230630128],[-99.8425307035666,17.171454914185045],[-99.75477643978984,17.17558223769532],[-99.74869162612254,17.244485680859928]]]}},{"type":"Feature","properties":{"clave":"05","tipo":"federal","nombre":"Distrito federal 5","entidad":"12"},"geometry":{"type":"Polygon","coordinates":[[[-98.32863610306812,17.277192421071007],[-98.27089651929266,17.228659107087832],[-98.28414026076341,17.210095866166142],[-98.27771217674055,17.168085808940347],[-98.26405106547195,17.17576437537978],[-98.25583034252558,17.15921003550154],[-98.26234060723185,17.13044639233658],[-98.28554561702337,17.10033049887996],[-98.22609676435718,17.078237616835914],[-98.22528133260198,17.067608029677398],[-98.23693451195574,17.053835396582237],[-98.23296743152918,17.040358288468195],[-98.24106489558602,17.040267713463955],[-98.24444444444705,17.049999999332083],[-98.26666670898156,17.052222186780902],[-98.2827778184421,17.038888887405687],[-98.28722222222471,17.012222221550452],[-98.3397222497073,16.96499995597141],[-98.3908333333355,16.949166665988393],[-98.41194444444653,16.9644444437677],[-98.46277777777969,16.966944443767925],[-98.46333333333524,16.991666665992696],[-98.49361111111291,16.991666665992625],[-98.50492397497608,17.01952203674086],[-98.52988994580289,17.048688854840318],[-98.52295463264788,17.062054976976967],[-98.52762985917813,17.097345780788785],[-98.54552354072229,17.098560324619623],[-98.54636341267921,17.09133912973987],[-98.5625042592876,17.091051001652517],[-98.57969582325165,17.06272654627822],[-98.54111111111273,17.036111110441624],[-98.51916666666838,17.003055554882692],[-98.53638896449245,16.97999998546689],[-98.55333338480342,17.009444361956422],[-98.64416666666794,16.969999999323807],[-98.6600000000012,16.99277777710382],[-98.67833333333564,16.992777776417498],[-98.68527777778004,16.97944444308154],[-98.69413935184777,16.976888979104917],[-98.704530360972,16.984743388556335],[-98.71252639000103,16.9706730593115],[-98.7044013900128,16.919313601823674],[-98.71056917001256,16.913353881816413],[-98.72587083001177,16.92926277183557],[-98.75403306001057,16.94311388185229],[-98.77770861000947,17.00598305192871],[-98.80854194000825,17.03218305196066],[-98.8029872154024,17.04324783253953],[-98.80615686277203,17.05655301879116],[-98.83243661246016,17.06813964241984],[-98.8380044161424,17.078819510265276],[-98.8655113224875,17.07045484193584],[-98.86639338385855,17.049503004561565],[-98.85996477227489,17.03966128128351],[-98.86884104757479,17.024624188578912],[-98.89201065417524,17.023554264024465],[-98.91982759476235,17.00688321292952],[-98.94928302183511,17.014936803432366],[-98.93944444444466,17.034166665996928],[-98.95004078301172,17.03804340188941],[-98.95714895066499,17.051901951924478],[-99.00003850637918,17.060072130140675],[-99.00761246106957,17.06443283031039],[-99.00522443275338,17.072479580424137],[-99.015599025087,17.069968174097035],[-99.01132339799973,17.08072959653213],[-99.020367846317,17.079914657205663],[-99.02063822340541,17.093275691735524],[-99.03101540873679,17.09072209109673],[-99.02840937375858,17.10137407181036],[-99.03288984776151,17.09410231419085],[-99.03906568054518,17.097585468585038],[-99.0347268317237,17.102747372983792],[-99.04186055707785,17.102364848058333],[-99.04013550438195,17.10964634261097],[-99.05006271236917,17.099654352990175],[-99.0584848199285,17.10296336090989],[-99.0583381760995,17.097982619644895],[-99.08170219073493,17.106683061959156],[-99.08163151194275,17.114268808232513],[-99.0854500394743,17.110622805491708],[-99.08771062084098,17.115881265868666],[-99.10437544041474,17.11548215691724],[-99.13037136668666,17.126226337519352],[-99.13358327838367,17.177054877178133],[-99.02688100540891,17.243341107590528],[-99.01191522678185,17.29045275197006],[-99.0340456959119,17.314125299057032],[-98.98365178145517,17.31534582572873],[-98.98703806016086,17.320256909636118],[-98.96133594702272,17.338918694762356],[-98.94111115623619,17.379722132486446],[-98.9713360378139,17.364695573833483],[-99.00669481251126,17.39857197054768],[-99.02277772390251,17.401077469355577],[-99.02555555555547,17.392499999367804],[-99.04750000181849,17.391111033516975],[-99.05423549731486,17.413302318171343],[-99.04448600940944,17.42103935713571],[-99.04099867822401,17.450613107336682],[-99.05308914076994,17.454326207265105],[-99.05836708847158,17.474325300673772],[-99.01952996071627,17.497448434923122],[-98.97586501823763,17.506823927091098],[-98.9568745442759,17.42207637327324],[-98.93859479856046,17.418664746517656],[-98.93363263510649,17.421573233384095],[-98.94125977921915,17.434103023731517],[-98.91052523546226,17.434621985627487],[-98.86440926769286,17.454140259839033],[-98.87507441398654,17.46244106679638],[-98.87893262262516,17.48514187218695],[-98.8938421206162,17.50097811801495],[-98.92412581298477,17.51665781161489],[-98.9446520714668,17.519839481515664],[-98.95384578646023,17.536702654326536],[-98.96532197443787,17.53352308289733],[-98.99347380693155,17.54563423555779],[-99.02603465357048,17.545923920296858],[-99.00986939028272,17.55723239224368],[-99.04730759277058,17.587269307379938],[-99.04851819806582,17.610901321111026],[-99.07801763671405,17.595947230911086],[-99.0756220592416,17.62599256616439],[-99.0819213458749,17.63224542190959],[-99.08310635363843,17.652362459871675],[-99.07692157335332,17.67588654658129],[-99.09521502936505,17.688730932189333],[-99.1047316408778,17.68811008189056],[-99.11326999497224,17.706726145709844],[-99.0955142438963,17.78023873667881],[-99.09799716380557,17.792116758444116],[-99.08514657995426,17.81760579944767],[-99.09871785188169,17.83891246741024],[-99.09757757426482,17.852425431224002],[-99.07828158857095,17.848622523666126],[-99.07129087739581,17.859607568982838],[-99.08230187127198,17.873138476679927],[-99.08021246429273,17.88390340395981],[-99.05347707966264,17.886288833872143],[-99.04113254782524,17.880980427344365],[-99.0299223200016,17.894737028481497],[-99.01458593277552,17.89279718711333],[-99.00979941524595,17.875706277997306],[-98.99523145544727,17.871679911185172],[-98.99819444646835,17.84657307401486],[-98.9904530349924,17.834548346859922],[-98.94324053154145,17.869439859508095],[-98.930359880256,17.87485844782257],[-98.92042539763361,17.871646358122206],[-98.90912463644464,17.889192191607172],[-98.91679729503201,17.90177501953224],[-98.93221901956433,17.904158874707345],[-98.92959803825406,17.918170297913882],[-98.91272341127076,17.92304187715524],[-98.90756605824721,17.94118197088027],[-98.87805425475314,17.94532025484347],[-98.88575884635196,17.956084728673442],[-98.87516248272657,17.960905606130808],[-98.87472264968403,18.015276647355265],[-98.86544340599552,18.007469091552387],[-98.86500232832468,18.01706659728253],[-98.85392513813078,18.00849815554709],[-98.83459881792537,18.01612539836711],[-98.8139950190795,18.00018940040364],[-98.80130700586598,18.00827558404233],[-98.7690736859858,17.989446216265776],[-98.73300535144983,17.982695134051028],[-98.70858343001834,17.963604239565747],[-98.68828030078812,17.961870898228234],[-98.67278640654679,17.949629430710445],[-98.67339442974544,17.94321364387568],[-98.66563941890803,17.94525746237781],[-98.64310111607409,17.932687996977883],[-98.63428810930704,17.942449666104036],[-98.61819147763701,17.945702625113217],[-98.60532366192635,17.962002378854184],[-98.59646821341643,17.958549310491858],[-98.5855512152262,17.97501627793231],[-98.55339908104997,17.980573618059076],[-98.54719735040571,17.992104156104713],[-98.53338101842641,17.995951169212322],[-98.46921071319812,17.992930634305903],[-98.45340810676413,17.970683159118806],[-98.43069210138519,17.975865369948377],[-98.43150543188811,17.962625378842688],[-98.42235225146678,17.947706051930115],[-98.43222207990559,17.910657437715763],[-98.42291888580581,17.878578535705053],[-98.42407891904614,17.83017399538661],[-98.43309874779277,17.801544339011578],[-98.4733063181689,17.793652810858077],[-98.4982851234361,17.78036433273971],[-98.48992763055303,17.745415186188374],[-98.47700367765692,17.730012231770072],[-98.48570878962079,17.72401280303507],[-98.49402855061064,17.6981721420539],[-98.52002916895754,17.685041871173315],[-98.47031604353194,17.676882266891067],[-98.46650837128526,17.6494954314606],[-98.45123427809472,17.648140716125454],[-98.43614072681387,17.636946433952872],[-98.45185381797033,17.629740731587347],[-98.42697494269697,17.624618976300788],[-98.41095199769633,17.60132732722789],[-98.35419283150166,17.60665699504905],[-98.34856651809227,17.60185954231782],[-98.34533239780717,17.594874742951838],[-98.3575699777984,17.579148445842797],[-98.340357057066,17.573725286472303],[-98.3403790148844,17.54718174725973],[-98.31504373829884,17.52179349687939],[-98.32745983169582,17.479442043008948],[-98.33175988664179,17.43192889709626],[-98.29832727129279,17.416259230285657],[-98.30684548163696,17.39808559821634],[-98.28972031863862,17.38620057290925],[-98.29747199128295,17.377253348736417],[-98.29171241275982,17.370711161318646],[-98.28652990129164,17.330183049243328],[-98.30370063078769,17.330715307560183],[-98.30603078476457,17.313112008354576],[-98.31450739105925,17.309101110351556],[-98.32131042606864,17.29213860682065],[-98.31996311494795,17.281463578501903],[-98.32863610306812,17.277192421071007]]]}},{"type":"Feature","properties":{"clave":"06","tipo":"federal","nombre":"Distrito federal 6","entidad":"12"},"geometry":{"type":"Polygon","coordinates":[[[-99.13980145061146,18.470425956880888],[-99.13581872633101,18.44986682639667],[-99.12443283781968,18.441580034629336],[-99.12822594691777,18.427082187169997],[-99.11053348611323,18.419391054092003],[-99.09889510872576,18.401196734135766],[-99.09095219773187,18.401628511753824],[-99.07856672252764,18.38653793248503],[-99.08124049820943,18.372949197436288],[-99.07352818790906,18.377054567436],[-99.06608895061673,18.367086998208695],[-99.07590271006258,18.34373443575514],[-99.06459865468476,18.332711305276558],[-99.06900461972855,18.326676445950422],[-99.06020021038397,18.315453195259614],[-99.06339594846375,18.30880725873761],[-99.05044534074845,18.289839451062956],[-99.05805172913885,18.282236294235673],[-99.00800284189684,18.262036297026256],[-98.9958844249919,18.263670911131126],[-98.98737113850268,18.253027063314573],[-98.98820201236103,18.23488059999039],[-98.96568719161873,18.21232649230656],[-98.9678121420673,18.202354802370788],[-98.95444390761446,18.205888205595702],[-98.93100343280042,18.23358309518153],[-98.9111685035153,18.2158593461877],[-98.87633166792135,18.203418641789654],[-98.86637277921746,18.19079445322134],[-98.84103542436556,18.18362082486389],[-98.8151313377692,18.18646631920041],[-98.8211604993146,18.162827770561403],[-98.81475738564247,18.153454905616588],[-98.77876760534913,18.13601116497639],[-98.7667096652686,18.117876044682543],[-98.77646534899047,18.111957393110877],[-98.79107959871018,18.08423384180335],[-98.79989430696051,18.086518221396386],[-98.81169522218579,18.07416991158625],[-98.81297582117746,18.065177208529935],[-98.83385684132868,18.06342382780415],[-98.83357231538118,18.045418606316225],[-98.8434250446526,18.034928500392358],[-98.83040628565404,18.024733471988153],[-98.83220902526342,18.01429807162054],[-98.85392513813078,18.00849815554709],[-98.86500232832468,18.01706659728253],[-98.86544340599552,18.007469091552387],[-98.87472264968403,18.015276647355265],[-98.87516248272657,17.960905606130808],[-98.88575884635196,17.956084728673442],[-98.87805425475314,17.94532025484347],[-98.90756605824721,17.94118197088027],[-98.91272341127076,17.92304187715524],[-98.92959803825406,17.918170297913882],[-98.93221901956433,17.904158874707345],[-98.91679729503201,17.90177501953224],[-98.90912463644464,17.889192191607172],[-98.92042539763361,17.871646358122206],[-98.930359880256,17.87485844782257],[-98.94324053154145,17.869439859508095],[-98.9904530349924,17.834548346859922],[-98.99819444646835,17.84657307401491],[-98.99523145544727,17.871679911185172],[-99.00979941524595,17.875706277997306],[-99.01458593277552,17.89279718711333],[-99.02267814784825,17.896201965418175],[-99.04113254782524,17.880980427344365],[-99.05347707966264,17.886288833872143],[-99.07930359503065,17.884625105201376],[-99.08230187127198,17.873138476679927],[-99.07129087739581,17.859607568982838],[-99.07828158857095,17.848622523666126],[-99.09757757426482,17.852425431224002],[-99.09871785188169,17.83891246741024],[-99.08514657995426,17.81760579944767],[-99.09799716380557,17.792116758444116],[-99.0955142438963,17.78023873667881],[-99.11326999497224,17.706726145709844],[-99.1047316408778,17.68811008189056],[-99.09521502936505,17.688730932189333],[-99.07692157335332,17.67588654658129],[-99.08310635363843,17.652362459871675],[-99.0819213458749,17.63224542190959],[-99.0756220592416,17.62599256616439],[-99.07801763671405,17.595947230911086],[-99.04851819806582,17.610901321111026],[-99.04730759277058,17.587269307379938],[-99.00986939028272,17.55723239224368],[-99.02603465357048,17.545923920296858],[-98.99347380693155,17.545634235557777],[-98.96532197443787,17.53352308289733],[-98.95384578646023,17.536702654326536],[-98.9446520714668,17.519839481515664],[-98.92412581298477,17.51665781161489],[-98.8938421206162,17.50097811801495],[-98.87893262262516,17.48514187218695],[-98.87507441398654,17.46244106679638],[-98.86440926769286,17.454140259839033],[-98.91052523546226,17.434621985627487],[-98.94125977921918,17.434103023731517],[-98.93363263510649,17.421573233384095],[-98.93859479856046,17.418664746517656],[-98.9568745442759,17.42207637327324],[-98.97586501823763,17.506823927091098],[-99.01952996071627,17.497448434923122],[-99.05836708847158,17.474325300673772],[-99.05308914076994,17.454326207265105],[-99.04099867822401,17.450613107336682],[-99.04448600940944,17.42103935713571],[-99.05423549731486,17.413302318171343],[-99.04750000181849,17.391111033516975],[-99.02555555555547,17.392499999367804],[-99.02277772390251,17.401077469355577],[-99.00669481251126,17.39857197054768],[-98.9713360378139,17.364695573833483],[-98.94111115623619,17.379722132486446],[-98.96133594702272,17.338918694762356],[-98.98703806016086,17.320256909636118],[-98.98365178145517,17.31534582572873],[-99.0340456959119,17.314125299057032],[-99.01191522678185,17.29045275197006],[-99.02688100540891,17.243341107590528],[-99.13358327838367,17.177054877178133],[-99.13276236018051,17.12707826001372],[-99.17919176056716,17.142009103207474],[-99.19460857305215,17.164257885228206],[-99.21660776424409,17.156849344355127],[-99.23775729428576,17.161887744532372],[-99.24021300423344,17.148651949756182],[-99.25130558950832,17.152038488871195],[-99.27381304748356,17.14077715849898],[-99.29542896407949,17.150813655168434],[-99.30296889301124,17.19907367541864],[-99.31920968787499,17.221229249213017],[-99.27124821677678,17.244877951999708],[-99.26104109431898,17.264776866194655],[-99.27210353826419,17.283423300858924],[-99.27109395846233,17.30277946596512],[-99.3212181786771,17.32855160581623],[-99.29899071873722,17.348048310564707],[-99.30507519377339,17.37831766937441],[-99.29714748174763,17.38564377259136],[-99.30856491294247,17.40346041109493],[-99.28944166945791,17.428164681711156],[-99.2987088761447,17.464342070438764],[-99.28323717853691,17.476680999499308],[-99.28644653986375,17.516038372859942],[-99.26120773508094,17.544429186174106],[-99.27028289662498,17.551491564477555],[-99.26516560983328,17.58626102430641],[-99.27375392017167,17.587866725101968],[-99.27736766289723,17.607201543548896],[-99.27025973221168,17.62469483959778],[-99.25481362576143,17.63426970841006],[-99.3104175817167,17.675759468061788],[-99.31772525586099,17.6694241704039],[-99.32046926578234,17.677735761675816],[-99.32569459445654,17.67396103876813],[-99.35983577932375,17.689830343657007],[-99.41148560118486,17.695922645639712],[-99.41304552325903,17.70250349799079],[-99.39039334269573,17.713744827651837],[-99.40400376459856,17.73924199466069],[-99.42526290645468,17.824192598988066],[-99.43941755956934,17.832337552310467],[-99.45265917465012,17.851918679007312],[-99.52795508582071,17.855419543526796],[-99.52189232077637,17.875230387466697],[-99.53045348821452,17.885665557347988],[-99.52549135645836,17.914560249030686],[-99.53172593313916,17.92673516613995],[-99.5207013272111,17.928230930753863],[-99.44484762807346,17.983273177861687],[-99.45093854699704,18.044343829124266],[-99.4862693927459,18.03925930609805],[-99.48896776572302,18.020328256345593],[-99.48217456786017,18.007339692395394],[-99.49087791673364,17.991004502027252],[-99.4895047665862,17.97812840686328],[-99.51968911433809,17.972552301054883],[-99.54269814152639,17.960446265631205],[-99.54494023450644,17.952163658870774],[-99.56150493310165,17.945417074444123],[-99.55987054656019,17.932498957963254],[-99.5719241368135,17.92154803241919],[-99.58717941888129,17.93808302732269],[-99.61045499851345,17.937884806409947],[-99.61811412427802,17.92891239627636],[-99.62914833283392,17.949195492828906],[-99.6359834776617,17.944849175324613],[-99.66677957843108,17.95860163604082],[-99.68658123313944,17.95932573293097],[-99.72279809319309,17.97972568525233],[-99.74248456870176,17.976512765485637],[-99.767835248229,18.004326284396356],[-99.78509961501912,17.99449147616907],[-99.80203062687775,17.999387857782704],[-99.80069669243099,17.989085933844045],[-99.79228636447492,17.983513389096004],[-99.80424790071812,17.97016815205166],[-99.81841450332733,17.97568862688653],[-99.81295998222393,17.989809628404334],[-99.81855190745136,17.997041585750264],[-99.8284910530465,17.97794640158207],[-99.84347167557245,17.989174199937604],[-99.83028103056041,18.03447090231129],[-99.81243508903582,18.039841526083993],[-99.79774668622609,18.035935624460542],[-99.79247223704833,18.061684164032872],[-99.79612705819201,18.089776408431913],[-99.77559372304773,18.127343598722533],[-99.77532588611183,18.15155244243799],[-99.75861970910063,18.158034010427222],[-99.74463454614714,18.185035742610136],[-99.75075265613594,18.19739998786295],[-99.73623092275366,18.202841966885067],[-99.71757704262346,18.244538971013434],[-99.72225768380025,18.263402881079504],[-99.71604166994236,18.285012444477548],[-99.72741044512338,18.29848756831946],[-99.7193654814516,18.30987203133493],[-99.68566237726974,18.318817658336407],[-99.67049071625391,18.312503254010274],[-99.65128420398882,18.31484047438239],[-99.64521756185074,18.303730442107305],[-99.61865943970025,18.303662662340336],[-99.62969380525021,18.30912995629527],[-99.6338050392518,18.321205950043815],[-99.65518652113877,18.341104261216465],[-99.63753570605371,18.357591769378402],[-99.63469413859995,18.345682372097453],[-99.6147120268189,18.34905494169156],[-99.57060537573237,18.389195303593404],[-99.5797991175959,18.40123690051145],[-99.55536452069447,18.413156717327755],[-99.54253364585558,18.405781126025442],[-99.52780399535987,18.419074246057725],[-99.48082343132532,18.39986097097297],[-99.4430991394679,18.368604520216653],[-99.41818950975022,18.370883271064304],[-99.3711033679051,18.402774902144973],[-99.34816166531748,18.399357422174383],[-99.29281339770621,18.42343840864084],[-99.269818114905,18.422455056782578],[-99.25592041982448,18.435202639289482],[-99.24121285243932,18.434305778767477],[-99.2103468020536,18.448765018546922],[-99.18268648861962,18.432186802818205],[-99.17359923634595,18.45430533982607],[-99.13980145061146,18.470425956880888]]]}},{"type":"Feature","properties":{"clave":"07","tipo":"federal","nombre":"Distrito federal 7","entidad":"12"},"geometry":{"type":"Polygon","coordinates":[[[-100.02417691461974,18.050275766545518],[-100.01663772859358,18.038860436169088],[-100.0243366707245,18.03159075634572],[-100.02142339643902,18.008248900044553],[-100.03995835702423,18.000892081617057],[-100.04766574385305,17.981690417203357],[-100.06379090486426,17.978079393748686],[-100.0621996729019,17.969309817359388],[-100.05024673264751,17.963690039171173],[-100.03708229569882,17.972578857472914],[-100.03298412813982,17.955957853447007],[-100.02401650601932,17.962119338743424],[-100.01844112414301,17.950771030507966],[-99.99520900441816,17.964998022632386],[-99.99172103898688,17.956698228044132],[-99.99970387165673,17.948888797458412],[-99.98139323971775,17.953505654502063],[-99.97704643031486,17.96302630739837],[-99.96938541102057,17.96436959252922],[-99.96348146119543,17.957082062275248],[-99.95296202207771,17.965323650897922],[-99.94687019338552,17.95335560442685],[-99.9317633463669,17.951273583372082],[-99.93467516506927,17.942841759645955],[-99.91466460861669,17.9388064971153],[-99.90835938689563,17.949748809280337],[-99.8899490539637,17.960489352095937],[-99.90098024717155,17.967824563663406],[-99.88573310160083,17.971084446959047],[-99.88615713933315,17.957563712076713],[-99.86214739194342,17.93277203955562],[-99.86066157638776,17.911983823204157],[-99.82603491667854,17.900676564485448],[-99.81246118755482,17.928496181949832],[-99.8202133935038,17.93254226181089],[-99.8089813953933,17.948044966003202],[-99.80944348231306,17.958119312868398],[-99.80031109657185,17.964290188456275],[-99.80028281219636,17.97749957627258],[-99.7922863644749,17.983513389096004],[-99.800696692431,17.989085933844045],[-99.80070720753466,18.000217755277124],[-99.78509961501912,17.994491476169124],[-99.767835248229,18.004326284396356],[-99.74248456870176,17.976512765485673],[-99.72279809319308,17.97972568525233],[-99.68658123313944,17.95932573293097],[-99.66677957843108,17.95860163604082],[-99.6359834776617,17.944849175324613],[-99.62914833283392,17.949195492828874],[-99.61811412427802,17.92891239627636],[-99.61045499851345,17.937884806409947],[-99.58717941888129,17.93808302732269],[-99.57382352885936,17.921305724267402],[-99.56247061321706,17.927137915727155],[-99.56111466121946,17.945919341038767],[-99.54494023450644,17.952163658870774],[-99.54269814152639,17.960446265631205],[-99.51968911433809,17.972552301054883],[-99.4895047665862,17.97812840686328],[-99.49087791673364,17.991004502027252],[-99.48217456786017,18.007339692395394],[-99.48896776572302,18.020328256345593],[-99.4862693927459,18.03925930609805],[-99.45093854699704,18.044343829124266],[-99.44484762807346,17.983273177861687],[-99.5207013272111,17.928230930753863],[-99.53172593313916,17.92673516613995],[-99.52549135645836,17.914560249030686],[-99.53045348821452,17.885665557347988],[-99.52189232077637,17.875230387466697],[-99.52795508582071,17.855419543526796],[-99.45265917465012,17.851918679007312],[-99.43941755956934,17.832337552310467],[-99.42526290645468,17.824192598988066],[-99.40400376459856,17.73924199466069],[-99.39039334269573,17.713744827651837],[-99.41304552325903,17.70250349799079],[-99.41148560118486,17.695922645639712],[-99.35983577932375,17.689830343657007],[-99.32569459445654,17.67396103876813],[-99.32046926578234,17.677735761675816],[-99.31772525586099,17.6694241704039],[-99.3104175817167,17.675759468061788],[-99.25481362576143,17.63426970841006],[-99.27025973221168,17.62469483959778],[-99.27736766289723,17.607201543548896],[-99.27375392017167,17.587866725101968],[-99.26516560983328,17.58626102430641],[-99.27028289662498,17.551491564477555],[-99.26120773508094,17.544429186174106],[-99.28644653986375,17.516038372859942],[-99.28323717853691,17.476680999499308],[-99.2987088761447,17.464342070438764],[-99.28944166945791,17.428164681711216],[-99.30856491294247,17.40346041109493],[-99.29714748174763,17.385643772591305],[-99.30507519377339,17.37831766937441],[-99.29899071873722,17.348048310564707],[-99.3212181786771,17.32855160581623],[-99.27109395846233,17.302779465965063],[-99.27210353826419,17.283423300858956],[-99.26104109431898,17.2647768661946],[-99.27124821677678,17.244877951999676],[-99.31920968787499,17.221229249213017],[-99.30227513836314,17.196261808886415],[-99.29542896407949,17.150813655168403],[-99.30112375576721,17.13827917238058],[-99.30794307428378,17.13829712522541],[-99.31163475351666,17.148123462152526],[-99.31864350952188,17.14500084367471],[-99.32214541557587,17.155611759749636],[-99.31268285667046,17.162434999870616],[-99.31518835045152,17.166419973276046],[-99.3283880811019,17.16938089227984],[-99.33405570349754,17.16295256366453],[-99.3386112601353,17.17034039987634],[-99.34448672690607,17.167802695780342],[-99.33994313534015,17.17878870208008],[-99.34949482726044,17.18350022509135],[-99.35033593229343,17.17651061029647],[-99.35652447063534,17.17590910429616],[-99.35489846654707,17.16806040580787],[-99.36057224281998,17.16795675955684],[-99.37088014173925,17.185487936345872],[-99.39362936200787,17.203012027565897],[-99.44320429127797,17.21777885676849],[-99.45691502015048,17.22061564741802],[-99.46943705481527,17.199005311152046],[-99.49826652889142,17.193219566590923],[-99.62834578695721,17.21566092851157],[-99.64248936326702,17.182696745215377],[-99.64593019649273,17.189154661353395],[-99.6544276762042,17.187329113964612],[-99.65557125395684,17.196437847025763],[-99.66544595118945,17.196515845669417],[-99.66980490022479,17.206616525847963],[-99.66498071795984,17.209683063491838],[-99.67439404186428,17.216634145716093],[-99.66359825201009,17.219538290216548],[-99.67117400487005,17.227898211748762],[-99.68128068695631,17.226153413186818],[-99.68059456583511,17.218121173175334],[-99.69035603355105,17.21662457466497],[-99.69736349957773,17.20726237302482],[-99.70069140680117,17.21545835517664],[-99.70643338878864,17.21404653171237],[-99.71240136654583,17.231183885766445],[-99.72101554006882,17.224469608444615],[-99.72583777637216,17.232663919173604],[-99.73330330181807,17.223631389576482],[-99.73491021720457,17.235223392754598],[-99.74294942299287,17.232069516039015],[-99.74869162612254,17.244485680859928],[-99.75477643978984,17.17558223769532],[-99.8181503957165,17.17741664410011],[-99.82378310562942,17.195461726906046],[-99.8383686029731,17.203060643316547],[-99.83022220155713,17.216735025591575],[-99.84343750102035,17.235762798368423],[-99.85239378632524,17.23326579500194],[-99.85653479587647,17.24477001592361],[-99.86985183723336,17.23680048203006],[-99.8777872863035,17.25293553763098],[-99.89490639302069,17.260691617340434],[-99.89939582780471,17.272856652292784],[-99.94510849151048,17.270207183779384],[-99.94043161331436,17.301019764908222],[-99.94779200010151,17.30837529490218],[-99.94377819308262,17.315007466887348],[-99.95021322727106,17.316154263425666],[-99.9512600394672,17.327579308745715],[-99.96470680194699,17.330864647641246],[-99.96310719621016,17.338403115837757],[-99.97241201079908,17.33656235892629],[-99.97345933940505,17.347159149871025],[-99.98058839229152,17.35087038951165],[-99.9935723531382,17.3502628712963],[-100.00378575697941,17.340717915253325],[-100.01872649697167,17.34300255101475],[-100.04143872952491,17.389980852024756],[-100.07375387670349,17.400663906949255],[-100.08724685000082,17.42464078506079],[-100.01859663351648,17.46178212145285],[-100.02971745452136,17.47648591462582],[-100.06556577239488,17.461949006458685],[-100.12014501581243,17.452070701326896],[-100.13683129788127,17.468087817671265],[-100.17639853943743,17.468122816648194],[-100.19511671020702,17.511203825013805],[-100.22701894868844,17.509115084947087],[-100.22643404147712,17.51871686894041],[-100.2134028043104,17.523968321921],[-100.20803373294704,17.545708783216668],[-100.22932053994535,17.56406574639436],[-100.21502763918625,17.563736323074824],[-100.2124342993289,17.573639638614736],[-100.22654807876907,17.58920391298726],[-100.21474124577678,17.58720961733189],[-100.20053033203206,17.601156717531847],[-100.18483194932803,17.597045944889107],[-100.17544953604559,17.603609230616566],[-100.14771610816973,17.64787344532284],[-100.1556664083091,17.667704957174934],[-100.14215588095516,17.669424320961127],[-100.13920767890518,17.67908555703138],[-100.15670307470845,17.69425585175705],[-100.13975685142691,17.76607226168747],[-100.15174475171139,17.792606451876114],[-100.14952788569317,17.812570830805267],[-100.1582386026589,17.82095883062175],[-100.15677923755524,17.830574125475003],[-100.1470784530183,17.8396923729246],[-100.13519965216986,17.83854614201858],[-100.1284100322924,17.849811813295954],[-100.14446955194072,17.86768459568205],[-100.15962073970033,17.86807814413453],[-100.17438918541107,17.884148171537348],[-100.17739263362145,17.90986422368999],[-100.1402192127869,17.941228452676135],[-100.14884470346446,17.965620463406832],[-100.11335103752342,17.965528291935367],[-100.11579820614477,17.978269493595807],[-100.09595273652928,17.984144619042407],[-100.09191424865828,17.991233614056657],[-100.0656672015648,17.98601806636378],[-100.05339067801148,18.00099054313498],[-100.06309941067293,18.03575156351277],[-100.05210114132836,18.039445416701476],[-100.04781320756857,18.048759892057387],[-100.02417691461974,18.050275766545518]]]}},{"type":"Feature","properties":{"clave":"08","tipo":"federal","nombre":"Distrito federal 8","entidad":"12"},"geometry":{"type":"Polygon","coordinates":[[[-98.52741535712732,16.354221870615955],[-98.55815966055313,16.32408191993439],[-98.57015473303268,16.3236155345809],[-98.5661549644891,16.328804479681267],[-98.57060698012398,16.341743699489548],[-98.6595661005473,16.43054871163218],[-98.70164105911093,16.461230484184867],[-98.73994028645667,16.515396833539683],[-98.77767165874258,16.555014121121282],[-98.8037158332101,16.557567348386577],[-98.83936575200771,16.54998530910705],[-98.85866088664655,16.5285118134612],[-98.90988678348371,16.535546111987898],[-99.0379540792678,16.58077836786825],[-99.23202426598247,16.63413144968661],[-99.22841004590884,16.6358854656869],[-99.44263263379297,16.680100378020835],[-99.54209528871985,16.689279358781945],[-99.60690765533421,16.68465419412215],[-99.60211871008372,16.71275638897669],[-99.62085450949235,16.72863016885646],[-99.62352588577282,16.748006187281135],[-99.605328143824,16.766978397108844],[-99.59718998481408,16.792854651912993],[-99.57730907489675,16.801721315058405],[-99.56929375902912,16.798629525135954],[-99.52147533439543,16.84545741108253],[-99.51951554489376,16.896598167252762],[-99.51011141278752,16.919652267445162],[-99.49284260742836,16.930673426735474],[-99.50112245031946,16.95148061712144],[-99.48284520232649,16.95670345963298],[-99.47554887619911,16.969832967475355],[-99.47463670526915,16.99201000405065],[-99.49758574053703,16.995000256968595],[-99.53934557763029,16.97720414753896],[-99.53994445309779,16.971744049618447],[-99.56760055858624,16.974330554760627],[-99.57895583083919,16.950288002674856],[-99.53364918327186,16.94258715186754],[-99.5707123200964,16.919304482166034],[-99.58437731831683,16.91761618981923],[-99.63363917551871,16.939471644881955],[-99.63795939721523,16.949748623875838],[-99.63055746065454,16.9633795349112],[-99.63978060151925,16.98211460550946],[-99.62543935377148,16.979749110640142],[-99.6127794843798,16.987237115466296],[-99.60908102363834,17.020577432873203],[-99.57935691308037,17.01658239841178],[-99.55832278413739,17.02114002896354],[-99.56888767823892,17.047249185702118],[-99.5581580315819,17.058217052048015],[-99.54311182150585,17.058243438473013],[-99.55354354376784,17.08849090839501],[-99.55072364483425,17.10254995746384],[-99.5647971955743,17.115512943826623],[-99.55381898691081,17.129790209632535],[-99.56025032082587,17.130476117647774],[-99.56261467783494,17.141492130052345],[-99.57402474629957,17.13358860992995],[-99.58918799347062,17.139488992552675],[-99.59400804204547,17.162957372084993],[-99.60389057684165,17.16307461663884],[-99.60754209950444,17.16929429551701],[-99.63078683163442,17.16175908954756],[-99.62626948871683,17.1705166007684],[-99.6366329325175,17.194137737150598],[-99.62834578695721,17.21566092851157],[-99.49826652889142,17.193219566590923],[-99.46943705481527,17.199005311152046],[-99.45691502015048,17.22061564741802],[-99.44320429127797,17.21777885676849],[-99.39362936200787,17.203012027565897],[-99.37088014173925,17.185487936345872],[-99.36057224281998,17.16795675955684],[-99.35489846654707,17.16806040580787],[-99.35652447063534,17.17590910429616],[-99.35033593229343,17.17651061029647],[-99.34949482726044,17.18350022509135],[-99.33994313534015,17.178788702080116],[-99.34448672690607,17.167802695780342],[-99.3386112601353,17.17034039987634],[-99.33405570349755,17.162952563664515],[-99.3283880811019,17.169380892279857],[-99.31518835045152,17.166419973276128],[-99.31268285667048,17.162434999870566],[-99.32227022170112,17.15387431210228],[-99.31843690297717,17.14458891994871],[-99.31163475351666,17.148123462152526],[-99.30484703668735,17.1376463197312],[-99.29949034413094,17.150149538674565],[-99.27381304748356,17.14077715849898],[-99.25130558950832,17.152038488871195],[-99.24021300423344,17.148651949756182],[-99.23775729428576,17.161887744532372],[-99.21660776424409,17.156849344355127],[-99.19460857305215,17.164257885228206],[-99.17919176056716,17.142009103207474],[-99.1126199470199,17.117700298451304],[-99.08771062084098,17.115881265868666],[-99.0854500394743,17.110622805491708],[-99.08163151194275,17.114268808232513],[-99.08170219073493,17.106683061959156],[-99.07477340142536,17.103341973338793],[-99.05701631146249,17.098021304858598],[-99.0584848199285,17.10296336090989],[-99.05006271236917,17.099654352990175],[-99.04013550438195,17.10964634261097],[-99.04186055707785,17.102364848058333],[-99.0347268317237,17.102747372983792],[-99.03906568054518,17.097585468585038],[-99.03288984776151,17.09410231419085],[-99.02840937375858,17.10137407181036],[-99.03101540873679,17.09072209109673],[-99.02063822340541,17.093275691735524],[-99.020367846317,17.079914657205663],[-99.01132339799973,17.08072959653213],[-99.015599025087,17.069968174097035],[-99.00522443275338,17.072479580424137],[-99.00761246106957,17.06443283031039],[-99.00003850637918,17.060072130140675],[-98.95714895066499,17.051901951924478],[-98.95004078301172,17.03804340188941],[-98.93944444444466,17.034166665996928],[-98.94928302183511,17.014936803432366],[-98.91982759476235,17.00688321292952],[-98.89201065417524,17.023554264024465],[-98.86884104757479,17.024624188578912],[-98.85996477227489,17.03966128128351],[-98.86639338385855,17.049503004561565],[-98.86551132248752,17.07045484193584],[-98.8380044161424,17.078819510265276],[-98.83243661246016,17.068139642419812],[-98.80615686277203,17.05655301879116],[-98.8029872154024,17.04324783253953],[-98.80854194000825,17.03218305196066],[-98.77770861000947,17.00598305192871],[-98.75403306001057,16.94311388185229],[-98.72587083001177,16.92926277183557],[-98.71056917001256,16.913353881816413],[-98.7044013900128,16.919313601823674],[-98.71252639000103,16.9706730593115],[-98.704530360972,16.984743388556335],[-98.69413935184777,16.976888979104917],[-98.68527777778004,16.97944444308154],[-98.67833333333564,16.992777776417498],[-98.6600000000012,16.99277777710382],[-98.64416666666794,16.969999999323807],[-98.55333338480342,17.009444361956422],[-98.53638896449245,16.97999998546689],[-98.51916666666838,17.003055554882692],[-98.54111111111273,17.036111110441624],[-98.57969582325165,17.06272654627822],[-98.5625042592876,17.091051001652495],[-98.54636341267921,17.09133912973987],[-98.54552354072229,17.098560324619623],[-98.52762985917813,17.097345780788785],[-98.52295463264788,17.062054976976967],[-98.52988994580289,17.048688854840318],[-98.50492397497608,17.01952203674086],[-98.49361111111291,16.991666665992625],[-98.46333333333524,16.991666665992696],[-98.46277777777969,16.966944443767925],[-98.41194444444653,16.9644444437677],[-98.3908333333355,16.949166665988393],[-98.3397222497073,16.96499995597141],[-98.28722222222471,17.012222221550452],[-98.2827778184421,17.038888887405687],[-98.26666670898156,17.052222186780902],[-98.24444444444705,17.049999999332083],[-98.24106489558602,17.040267713463955],[-98.23296743152918,17.040358288468195],[-98.23693451195574,17.053835396582237],[-98.22528133260198,17.067608029677398],[-98.22609676435718,17.078237616835914],[-98.28554561702337,17.10033049887996],[-98.26234060723185,17.13044639233658],[-98.25583034252558,17.15921003550154],[-98.26412191900597,17.173237093015334],[-98.25157424396942,17.2075203584583],[-98.2385780700408,17.219148966012675],[-98.22401838923679,17.189723285756173],[-98.21411962512096,17.18474842866399],[-98.22467613511054,17.15252030519759],[-98.22008792662702,17.145680115583392],[-98.22225778008657,17.12158945075882],[-98.17993813278859,17.118040335582073],[-98.1704332160382,17.10115632720095],[-98.15256572675112,17.10844088055263],[-98.15148292034584,17.103025297296885],[-98.1297342111705,17.095425664999777],[-98.12171773140753,17.082446043104575],[-98.0989952592288,17.084790440977702],[-98.06551056875871,17.039060750575562],[-98.069525601257,17.026163580206028],[-98.09135725084946,17.01730458888115],[-98.1133116130062,16.994882423309534],[-98.1070905118299,16.991071383113166],[-98.11366383468261,16.981290896245635],[-98.10338127584542,16.96136049432599],[-98.10688760292199,16.944113178289985],[-98.08698626898511,16.91179874688719],[-98.0803531956702,16.879421289213894],[-98.07275887134537,16.874158538264798],[-98.08591967535976,16.814912317658237],[-98.09865412740034,16.79883597829335],[-98.1075757907163,16.759206876693202],[-98.11979197217161,16.753758000591354],[-98.1264528677592,16.760180371811302],[-98.13362284317576,16.75809716899815],[-98.13332790277293,16.74926090133203],[-98.12575524000245,16.749726629466377],[-98.12634773413745,16.7395428008717],[-98.13916738693125,16.72412014729789],[-98.17475936908883,16.718497221952365],[-98.19870070155321,16.697516051525316],[-98.2052868230499,16.69810762801096],[-98.20089782940687,16.712560144390412],[-98.21839167051927,16.710715831289537],[-98.21140570099513,16.66975798461508],[-98.22409735278704,16.64534664374051],[-98.21065238631506,16.633538980785396],[-98.19820319960006,16.6314599336778],[-98.21713802848848,16.616535498119905],[-98.22122944971919,16.59214238479785],[-98.21661724451111,16.593508478204672],[-98.21619693672879,16.584447028803936],[-98.32217174460209,16.570269735338893],[-98.40590733620702,16.571215002851567],[-98.38470606748244,16.546041407057555],[-98.38417458692851,16.513643797165138],[-98.36898401284203,16.500492689473948],[-98.37122604327824,16.490952029322766],[-98.35459401900398,16.488626626992527],[-98.36676071746675,16.45258040247617],[-98.34368347752927,16.44340881264799],[-98.35244193236426,16.433164493957978],[-98.34977117166315,16.422295615198514],[-98.3771168964256,16.42161973470899],[-98.38166060101275,16.427846664828817],[-98.38887759736174,16.423970839697496],[-98.41363570427504,16.431276257182443],[-98.411780484808,16.420689382510997],[-98.44202332187083,16.402381459611735],[-98.445695303913,16.38582874669103],[-98.4662149881244,16.375949219608245],[-98.47588319683187,16.35893724246833],[-98.52741535712732,16.354221870615955]]]}}]}